STARLINK-1730           
1 46563U 20070AH  25329.52126913  .00048258  00000+0  18278-2 0  9997
2 46563  53.0394 250.9993 0005541  55.3121 304.8398 15.26449412284275
STARLINK-1733           
1 46564U 20070AJ  25329.78662054  .00096537  00000+0  21515-2 0  9998
2 46564  53.0543 251.3828 0010157  95.7046 264.5117 15.42777023284278
STARLINK-1735           
1 46565U 20070AK  25329.52114433  .00086900  00000+0  22595-2 0  9996
2 46565  53.0535 258.4345 0005891  98.4499 261.7172 15.38194600284160
STARLINK-1740           
1 46566U 20070AL  25329.83335647  .00168412  00000+0  18532-2 0  9998
2 46566  53.0528 236.1760 0007805  40.4233 103.9186 15.62078443  5950
STARLINK-1741           
1 46567U 20070AM  25329.81414942  .00084447  00000+0  21840-2 0  9994
2 46567  53.0524 256.5554 0007028  98.5646 261.6153 15.38365171284228
STARLINK-1531           
1 46572U 20070AS  25329.57202728  .00101770  00000+0  32181-2 0  9999
2 46572  53.0577 277.3583 0007535  84.7913 275.3947 15.31960512283902
STARLINK-1675           
1 46575U 20070AV  25329.63531892  .03596797  11891-4  14187-2 0  9997
2 46575  53.0246 156.1295 0006724 262.3029  97.7247 16.23001125285609
STARLINK-1677           
1 46576U 20070AW  25329.83335647  .00080980  00000+0  22543-2 0  9999
2 46576  53.0497 261.0576 0008311  87.0516 179.7248 15.36098532  5796
STARLINK-1683           
1 46578U 20070AY  25329.83335647  .00076139  00000+0  16324-2 0  9992
2 46578  53.0207 218.2939 0012469  71.9148 188.9827 15.44010480  5864
STARLINK-1705           
1 46579U 20070AZ  25329.83335647  .00176716  00000+0  17002-2 0  9999
2 46579  53.0439 232.1972 0011216  74.4756   8.8204 15.65423704  5933
STARLINK-1712           
1 46581U 20070BB  25329.83335647  .00097411  00000+0  17889-2 0  9999
2 46581  53.0490 232.8930 0001783  37.7763  60.5180 15.48476876  5838
STARLINK-1728           
1 46582U 20070BC  25329.53632245  .00067971  00000+0  21747-2 0  9997
2 46582  53.0518 258.8842 0006605  97.1742 263.0009 15.31791919284160
STARLINK-1736           
1 46585U 20070BF  25329.80584193  .00091353  00000+0  22219-2 0  9994
2 46585  53.0525 256.7660 0006747  95.9062 264.2711 15.40204126284212
STARLINK-1746           
1 46588U 20070BJ  25329.84305130  .00081381  00000+0  20661-2 0  9992
2 46588  53.0530 255.9091 0008060  93.0365 267.1561 15.38944249284236
STARLINK-1716           
1 46672U 20073C   25329.83335647  .00138606  00000+0  33647-2 0  9995
2 46672  53.0537 340.0662 0010567  27.6338 227.2544 15.39998791  5494
STARLINK-1718           
1 46674U 20073E   25329.75086500  .00002125  00000+0  16152-3 0  9998
2 46674  53.0553 348.2163 0001631  88.7321 271.3855 15.06398228281463
STARLINK-1775           
1 46681U 20073M   25329.83335647  .00115239  00000+0  24303-2 0  9991
2 46681  53.0552 355.8409 0005839  30.9879 200.0672 15.44355891  5863
STARLINK-1781           
1 46685U 20073R   25329.81770672  .00000906  00000+0  79694-4 0  9993
2 46685  53.0588   3.1857 0001679  84.5731 275.5450 15.06402212281254
STARLINK-1784           
1 46687U 20073T   25329.22287182  .00111120  00000+0  34167-2 0  9994
2 46687  53.0561 325.6171 0004788  58.9631 301.1839 15.32820168281739
STARLINK-1788           
1 46689U 20073V   25329.77472943  .00108443  00000+0  26710-2 0  9996
2 46689  53.0534 357.3796 0006205  25.4224 334.7084 15.39735554282588
STARLINK-1789           
1 46690U 20073W   25329.83335647  .00140535  00000+0  21272-2 0  9990
2 46690  53.0527 320.6192 0011808   1.5449  55.6202 15.53643977  5839
STARLINK-1790           
1 46691U 20073X   25329.83335647  .00145138  00000+0  32602-2 0  9994
2 46691  53.0548 341.5754 0006149  36.0258 203.2988 15.42343195  5853
STARLINK-1795           
1 46696U 20073AC  25329.83335647  .00174306  00000+0  41788-2 0  9993
2 46696  53.0551 321.5782 0007219  49.9999 300.4498 15.40247127  5666
STARLINK-1797           
1 46698U 20073AE  25329.83335647  .00114556  00000+0  33571-2 0  9997
2 46698  53.0534 342.7351 0007026  29.3709 140.2382 15.34313836  5827
STARLINK-1799           
1 46699U 20073AF  25329.83335647  .00149270  00000+0  31531-2 0  9993
2 46699  53.0545 340.4910 0007079  36.9825 174.7289 15.44146595  5833
STARLINK-1800           
1 46700U 20073AG  25329.83335647  .00119029  00000+0  27819-2 0  9999
2 46700  53.0520 353.4867 0010165  12.7078 122.3378 15.41241453  5616
STARLINK-1801           
1 46701U 20073AH  25329.83335647  .00147536  00000+0  33091-2 0  9993
2 46701  53.0554 341.1563 0007269  31.6765   0.9863 15.42370821  5865
STARLINK-1802           
1 46702U 20073AJ  25329.74165117  .00004458  00000+0  31800-3 0  9999
2 46702  53.0553 328.2582 0001625  94.8636 265.2539 15.06399755281746
STARLINK-1805           
1 46705U 20073AM  25329.83241222  .00008658  00000+0  59930-3 0  9994
2 46705  53.0545   2.8519 0001513  81.0935 279.0225 15.06405828281262
STARLINK-1807           
1 46706U 20073AN  25329.77064324  .00050622  00000+0  26142-2 0  9990
2 46706  53.0495 344.2460 0001443 277.7796  82.3033 15.15834575281522
STARLINK-1810           
1 46709U 20073AR  25329.83335647  .01959300  00000+0  80146-1 0  9994
2 46709  53.0564   1.9704 0001428  63.5671 242.0207 15.20409556  5835
STARLINK-1814           
1 46712U 20073AU  25329.83335647  .00162234  00000+0  33084-2 0  9999
2 46712  53.0526 335.1361 0012553  13.4986  17.9633 15.45073852  5927
STARLINK-1815           
1 46713U 20073AV  25329.83335647  .00132690  00000+0  35181-2 0  9993
2 46713  53.0550 341.5620 0008641  30.8644 261.2005 15.37341472  5835
STARLINK-1816           
1 46714U 20073AW  25329.83335647  .00139987  00000+0  32586-2 0  9996
2 46714  53.0551 341.6743 0005698  40.8381 245.6203 15.41298458  5816
STARLINK-1817           
1 46715U 20073AX  25329.36385706  .00014581  00000+0  99595-3 0  9992
2 46715  53.0546 349.9539 0001122 109.7578 250.3532 15.06392305281402
STARLINK-1820           
1 46717U 20073AZ  25329.83335647  .00183457  00000+0  35256-2 0  9997
2 46717  53.0536 311.7669 0009991 353.2693 130.1507 15.46745337  5873
STARLINK-1821           
1 46718U 20073BA  25329.45363681  .00064105  00000+0  25430-2 0  9996
2 46718  53.0590 352.2893 0001294  41.4868 318.6227 15.24789396281384
STARLINK-1826           
1 46723U 20073BF  25329.83335647  .00147611  00000+0  42324-2 0  9990
2 46723  53.0549 317.3015 0006864  55.5575  56.0602 15.34841689  5863
STARLINK-1828           
1 46725U 20073BH  25329.81029944  .00006224  00000+0  43638-3 0  9994
2 46725  53.0558   2.9508 0001253  94.0407 266.0725 15.06397946281268
STARLINK-1830           
1 46727U 20073BK  25329.83335647  .00151077  00000+0  45248-2 0  9993
2 46727  53.0549 317.0280 0009061  44.2983 290.2458 15.33433831  5695
STARLINK-1848           
1 46740U 20074B   25329.50080218  .00057299  00000+0  91652-3 0  9996
2 46740  53.0485  49.7961 0004561 216.3921 143.6779 15.52604733281244
STARLINK-1892           
1 46743U 20074E   25329.82914561  .00083332  00000+0  27950-2 0  9997
2 46743  53.0518  63.6745 0004427   1.9368 358.1648 15.30182925281083
STARLINK-1894           
1 46744U 20074F   25329.83335647  .00098185  00000+0  21649-2 0  9992
2 46744  53.0533  61.8908 0006147 351.7837 107.9162 15.43119681  5808
STARLINK-1905           
1 46746U 20074H   25329.83335647  .00083973  00000+0  21484-2 0  9990
2 46746  53.0527  61.9049 0005983 342.0091  34.0511 15.38706431  5865
STARLINK-1911           
1 46749U 20074L   25329.53820645  .00040209  00000+0  87583-3 0  9995
2 46749  53.0557  62.9740 0003895   9.6216 350.4863 15.43897074281068
STARLINK-1922           
1 46753U 20074Q   25329.83335647  .00087969  00000+0  22505-2 0  9992
2 46753  53.0537  62.2749 0006904 349.3210 359.4012 15.38680576  5740
STARLINK-1928           
1 46758U 20074V   25329.83335647  .00091164  00000+0  22420-2 0  9995
2 46758  53.0528  65.1105 0005414 334.7319  72.7564 15.39876131  5906
STARLINK-1832           
1 46780U 20074AT  25329.83335647  .00092940  00000+0  19922-2 0  9996
2 46780  53.0546  51.7324 0004671   3.6129  69.8723 15.43991595  5855
STARLINK-1835           
1 46782U 20074AV  25329.69473554  .00092473  00000+0  24255-2 0  9998
2 46782  53.0537  52.5613 0006439 349.1386  10.9477 15.37890694281225
STARLINK-1882           
1 46784U 20074AX  25329.54457675  .00074431  00000+0  23515-2 0  9992
2 46784  53.0586  52.1868 0004807 331.7937  28.2803 15.32161978281210
STARLINK-1893           
1 46786U 20074AZ  25329.59346565  .00056273  00000+0  19467-2 0  9999
2 46786  53.0581  34.9465 0006642   2.2294 357.8733 15.29353033281464
STARLINK-1931           
1 46790U 20074BD  25329.83335647  .00080715  00000+0  21057-2 0  9996
2 46790  53.0530  61.9336 0005969 336.8724 304.0314 15.38126307  5864
STARLINK-1934           
1 46792U 20074BF  25329.83335647  .00088215  00000+0  19298-2 0  9995
2 46792  53.0538  51.6568 0006432 357.7567 197.9374 15.43405101  5807
STARLINK-1942           
1 46794U 20074BH  25329.53706019  .00088849  00000+0  28912-2 0  9995
2 46794  53.0538  65.4786 0004041 351.9038   8.1896 15.31129868281030
STARLINK-1944           
1 46796U 20074BK  25329.76640716  .00110602  00000+0  25262-2 0  9991
2 46796  53.0547  51.5097 0007020 346.2452  13.8360 15.41999572281240
STARLINK-1777           
1 47122U 20088A   25329.51680595  .00002448  00000+0  18321-3 0  9999
2 47122  53.0548  49.2700 0001290  95.8859 264.2277 15.06394213276134
STARLINK-1812           
1 47126U 20088E   25329.54259793  .00000615  00000+0  60182-4 0  9995
2 47126  53.0558  49.1529 0001149 102.3672 257.7446 15.06398610276148
STARLINK-1843           
1 47133U 20088M   25329.50083575  .00112110  00000+0  23672-2 0  9997
2 47133  53.0550  32.7942 0006536   9.9448 350.1686 15.44330478276361
STARLINK-1845           
1 47135U 20088P   25329.58038677  .00004021  00000+0  28871-3 0  9998
2 47135  53.0539  38.9835 0001219  94.4199 265.6929 15.06399801276288
